{
  "type": "FeatureCollection",
  "features": [
    {
      "type": "Feature",
      "properties": {
        "norad_id": 65731,
        "name": "1998-067XK",
        "group": "stations",
        "lat": -42.419417605240014,
        "lon": -57.18060018531727,
        "alt_km": 368.2760807759678,
        "timestamp": "2025-12-24T16:52:40.213496+00:00",
        "meta_object_name": "1998-067XK",
        "meta_object_id": "1998-067XK",
        "meta_epoch": "2025-12-24T05:09:13.323456",
        "meta_mean_motion": 15.67922599,
        "meta_eccentricity": 0.0005005,
        "meta_inclination": 51.629,
        "meta_ra_of_asc_node": 78.9215,
        "meta_arg_of_pericenter": 318.0201,
        "meta_mean_anomaly": 42.0411,
        "meta_ephemeris_type": 0,
        "meta_classification_type": "U",
        "meta_norad_cat_id": 65731,
        "meta_element_set_no": 999,
        "meta_rev_at_epoch": 1494,
        "meta_bstar": 0.00097770635,
        "meta_mean_motion_dot": 0.00111192,
        "meta_mean_motion_ddot": 0,
        "tle_line1": "1 65731U 98067XK  25358.21473754  .00111192  00000+0  97771-3 0  9996",
        "tle_line2": "2 65731  51.6290  78.9215 0005005 318.0201  42.0411 15.67922599 14949"
      },
      "geometry": {
        "type": "Point",
        "coordinates": [
          -57.18060018531727,
          -42.419417605240014
        ]
      }
    },
    {
      "type": "Feature",
      "properties": {
        "norad_id": 65732,
        "name": "RSP-03",
        "group": "stations",
        "lat": -6.0683618364808005,
        "lon": 70.60099577285392,
        "alt_km": 351.95697203132113,
        "timestamp": "2025-12-24T16:52:40.213508+00:00",
        "meta_object_name": "RSP-03",
        "meta_object_id": "1998-067XL",
        "meta_epoch": "2025-12-24T06:13:41.867904",
        "meta_mean_motion": 15.71560433,
        "meta_eccentricity": 0.00059657,
        "meta_inclination": 51.6259,
        "meta_ra_of_asc_node": 77.7058,
        "meta_arg_of_pericenter": 324.9345,
        "meta_mean_anomaly": 35.126,
        "meta_ephemeris_type": 0,
        "meta_classification_type": "U",
        "meta_norad_cat_id": 65732,
        "meta_element_set_no": 999,
        "meta_rev_at_epoch": 1497,
        "meta_bstar": 0.0011365704,
        "meta_mean_motion_dot": 0.00151258,
        "meta_mean_motion_ddot": 0,
        "tle_line1": "1 65732U 98067XL  25358.25951236  .00151258  00000+0  11366-2 0  9999",
        "tle_line2": "2 65732  51.6259  77.7058 0005965 324.9345  35.1260 15.71560433 14975"
      },
      "geometry": {
        "type": "Point",
        "coordinates": [
          70.60099577285392,
          -6.0683618364808005
        ]
      }
    },
    {
      "type": "Feature",
      "properties": {
        "norad_id": 65733,
        "name": "GHS-01",
        "group": "stations",
        "lat": -34.023854009260766,
        "lon": -74.2222885657818,
        "alt_km": 336.86826039478456,
        "timestamp": "2025-12-24T16:52:40.213520+00:00",
        "meta_object_name": "GHS-01",
        "meta_object_id": "1998-067XM",
        "meta_epoch": "2025-12-23T11:05:04.304832",
        "meta_mean_motion": 15.79591896,
        "meta_eccentricity": 0.00088003,
        "meta_inclination": 51.6283,
        "meta_ra_of_asc_node": 79.8731,
        "meta_arg_of_pericenter": 346.0913,
        "meta_mean_anomaly": 13.9844,
        "meta_ephemeris_type": 0,
        "meta_classification_type": "U",
        "meta_norad_cat_id": 65733,
        "meta_element_set_no": 999,
        "meta_rev_at_epoch": 1487,
        "meta_bstar": 0.0014327729,
        "meta_mean_motion_dot": 0.00275731,
        "meta_mean_motion_ddot": 0,
        "tle_line1": "1 65733U 98067XM  25357.46185538  .00275731  00000+0  14328-2 0  9990",
        "tle_line2": "2 65733  51.6283  79.8731 0008800 346.0913  13.9844 15.79591896 14877"
      },
      "geometry": {
        "type": "Point",
        "coordinates": [
          -74.2222885657818,
          -34.023854009260766
        ]
      }
    },
    {
      "type": "Feature",
      "properties": {
        "norad_id": 65941,
        "name": "YOTSUBA-KULOVER",
        "group": "stations",
        "lat": 49.094527767648586,
        "lon": 145.9145265458857,
        "alt_km": 377.6379246600218,
        "timestamp": "2025-12-24T16:52:40.213530+00:00",
        "meta_object_name": "YOTSUBA-KULOVER",
        "meta_object_id": "1998-067XN",
        "meta_epoch": "2025-12-24T05:48:16.557984",
        "meta_mean_motion": 15.6097178,
        "meta_eccentricity": 0.00023493,
        "meta_inclination": 51.6293,
        "meta_ra_of_asc_node": 82.1031,
        "meta_arg_of_pericenter": 352.2605,
        "meta_mean_anomaly": 7.8352,
        "meta_ephemeris_type": 0,
        "meta_classification_type": "U",
        "meta_norad_cat_id": 65941,
        "meta_element_set_no": 999,
        "meta_rev_at_epoch": 1165,
        "meta_bstar": 0.00086929736,
        "meta_mean_motion_dot": 0.00074548,
        "meta_mean_motion_ddot": 0,
        "tle_line1": "1 65941U 98067XN  25358.24185831  .00074548  00000+0  86930-3 0  9996",
        "tle_line2": "2 65941  51.6293  82.1031 0002349 352.2605   7.8352 15.60971780 11651"
      },
      "geometry": {
        "type": "Point",
        "coordinates": [
          145.9145265458857,
          49.094527767648586
        ]
      }
    },
    {
      "type": "Feature",
      "properties": {
        "norad_id": 65942,
        "name": "BOTAN",
        "group": "stations",
        "lat": -23.155948323014993,
        "lon": -81.44796894474025,
        "alt_km": 376.5739326309222,
        "timestamp": "2025-12-24T16:52:40.213541+00:00",
        "meta_object_name": "BOTAN",
        "meta_object_id": "1998-067XP",
        "meta_epoch": "2025-12-23T23:07:45.899616",
        "meta_mean_motion": 15.65195853,
        "meta_eccentricity": 0.00032883,
        "meta_inclination": 51.6282,
        "meta_ra_of_asc_node": 82.4941,
        "meta_arg_of_pericenter": 330.2787,
        "meta_mean_anomaly": 29.802,
        "meta_ephemeris_type": 0,
        "meta_classification_type": "U",
        "meta_norad_cat_id": 65942,
        "meta_element_set_no": 999,
        "meta_rev_at_epoch": 1162,
        "meta_bstar": 0.0010936719,
        "meta_mean_motion_dot": 0.00111413,
        "meta_mean_motion_ddot": 0,
        "tle_line1": "1 65942U 98067XP  25357.96372569  .00111413  00000+0  10937-2 0  9997",
        "tle_line2": "2 65942  51.6282  82.4941 0003288 330.2787  29.8020 15.65195853 11620"
      },
      "geometry": {
        "type": "Point",
        "coordinates": [
          -81.44796894474025,
          -23.155948323014993
        ]
      }
    },
    {
      "type": "Feature",
      "properties": {
        "norad_id": 65943,
        "name": "E-KAGAKU-1",
        "group": "stations",
        "lat": 48.903873753546584,
        "lon": 145.05326195420596,
        "alt_km": 378.47037839952463,
        "timestamp": "2025-12-24T16:52:40.213551+00:00",
        "meta_object_name": "E-KAGAKU-1",
        "meta_object_id": "1998-067XQ",
        "meta_epoch": "2025-12-22T10:46:55.533504",
        "meta_mean_motion": 15.60710313,
        "meta_eccentricity": 0.00012968,
        "meta_inclination": 51.6319,
        "meta_ra_of_asc_node": 91.1385,
        "meta_arg_of_pericenter": 295.9007,
        "meta_mean_anomaly": 64.1852,
        "meta_ephemeris_type": 0,
        "meta_classification_type": "U",
        "meta_norad_cat_id": 65943,
        "meta_element_set_no": 999,
        "meta_rev_at_epoch": 1137,
        "meta_bstar": 0.00086344374,
        "meta_mean_motion_dot": 0.00073283,
        "meta_mean_motion_ddot": 0,
        "tle_line1": "1 65943U 98067XQ  25356.44925386  .00073283  00000+0  86344-3 0  9999",
        "tle_line2": "2 65943  51.6319  91.1385 0001296 295.9007  64.1852 15.60710313 11376"
      },
      "geometry": {
        "type": "Point",
        "coordinates": [
          145.05326195420596,
          48.903873753546584
        ]
      }
    },
    {
      "type": "Feature",
      "properties": {
        "norad_id": 66052,
        "name": "HRC MONOBLOCK CAMERA",
        "group": "stations",
        "lat": 5.639635034360763,
        "lon": -102.66860956668685,
        "alt_km": 401.7476029170548,
        "timestamp": "2025-12-24T16:52:40.213562+00:00",
        "meta_object_name": "HRC MONOBLOCK CAMERA",
        "meta_object_id": "1998-067XR",
        "meta_epoch": "2025-12-23T23:10:15.977280",
        "meta_mean_motion": 15.54901889,
        "meta_eccentricity": 0.0002152,
        "meta_inclination": 51.6306,
        "meta_ra_of_asc_node": 85.5033,
        "meta_arg_of_pericenter": 238.968,
        "meta_mean_anomaly": 121.11,
        "meta_ephemeris_type": 0,
        "meta_classification_type": "U",
        "meta_norad_cat_id": 66052,
        "meta_element_set_no": 999,
        "meta_rev_at_epoch": 1058,
        "meta_bstar": 0.0005004,
        "meta_mean_motion_dot": 0.00033738,
        "meta_mean_motion_ddot": 0,
        "tle_line1": "1 66052U 98067XR  25357.96546270  .00033738  00000+0  50040-3 0  9995",
        "tle_line2": "2 66052  51.6306  85.5033 0002152 238.9680 121.1100 15.54901889 10582"
      },
      "geometry": {
        "type": "Point",
        "coordinates": [
          -102.66860956668685,
          5.639635034360763
        ]
      }
    }
  ]
}